[{"OBJECT_NAME":"ONEWEB-0215","OBJECT_ID":"2021-045AK","EPOCH":"2026-01-02T07:11:21.204672","MEAN_MOTION":13.15547338,"ECCENTRICITY":0.00016118,"INCLINATION":87.9019,"RA_OF_ASC_NODE":292.2738,"ARG_OF_PERICENTER":50.1937,"MEAN_ANOMALY":309.9335,"EPHEMERIS_TYPE":0,"CLASSIFICATION_TYPE":"U","NORAD_CAT_ID":48800,"ELEMENT_SET_NO":999,"REV_AT_EPOCH":22248,"BSTAR":-0.00010574098,"MEAN_MOTION_DOT":-2.7e-7,"MEAN_MOTION_DDOT":0},{"OBJECT_NAME":"ONEWEB-0216","OBJECT_ID":"2021-045AL","EPOCH":"2026-01-02T07:25:03.181440","MEAN_MOTION":13.15548741,"ECCENTRICITY":0.00018566,"INCLINATION":87.9007,"RA_OF_ASC_NODE":292.2993,"ARG_OF_PERICENTER":72.2924,"MEAN_ANOMALY":287.8409,"EPHEMERIS_TYPE":0,"CLASSIFICATION_TYPE":"U","NORAD_CAT_ID":48801,"ELEMENT_SET_NO":999,"REV_AT_EPOCH":22249,"BSTAR":0.00012190799,"MEAN_MOTION_DOT":5.9e-7,"MEAN_MOTION_DDOT":0},{"OBJECT_NAME":"ONEWEB-0239","OBJECT_ID":"2021-045AM","EPOCH":"2026-01-02T07:31:54.027264","MEAN_MOTION":13.15548517,"ECCENTRICITY":0.00012512,"INCLINATION":87.9004,"RA_OF_ASC_NODE":292.3129,"ARG_OF_PERICENTER":47.5205,"MEAN_ANOMALY":312.6031,"EPHEMERIS_TYPE":0,"CLASSIFICATION_TYPE":"U","NORAD_CAT_ID":48802,"ELEMENT_SET_NO":999,"REV_AT_EPOCH":22253,"BSTAR":0.00028653393,"MEAN_MOTION_DOT":1.21e-6,"MEAN_MOTION_DDOT":0},{"OBJECT_NAME":"ONEWEB-0249","OBJECT_ID":"2021-060A","EPOCH":"2026-01-02T03:37:03.571392","MEAN_MOTION":13.16592939,"ECCENTRICITY":0.00014446,"INCLINATION":87.904,"RA_OF_ASC_NODE":261.8385,"ARG_OF_PERICENTER":69.6711,"MEAN_ANOMALY":290.4575,"EPHEMERIS_TYPE":0,"CLASSIFICATION_TYPE":"U","NORAD_CAT_ID":48967,"ELEMENT_SET_NO":999,"REV_AT_EPOCH":21776,"BSTAR":0.00014706192,"MEAN_MOTION_DOT":6.9e-7,"MEAN_MOTION_DDOT":0},{"OBJECT_NAME":"ONEWEB-0250","OBJECT_ID":"2021-060B","EPOCH":"2026-01-02T04:51:21.180672","MEAN_MOTION":13.25822387,"ECCENTRICITY":5.133e-5,"INCLINATION":87.9038,"RA_OF_ASC_NODE":260.1267,"ARG_OF_PERICENTER":92.5503,"MEAN_ANOMALY":267.5692,"EPHEMERIS_TYPE":0,"CLASSIFICATION_TYPE":"U","NORAD_CAT_ID":48968,"ELEMENT_SET_NO":999,"REV_AT_EPOCH":21822,"BSTAR":0.00025764854,"MEAN_MOTION_DOT":1.26e-6,"MEAN_MOTION_DDOT":0},{"OBJECT_NAME":"ONEWEB-0252","OBJECT_ID":"2021-060D","EPOCH":"2026-01-02T04:22:38.900352","MEAN_MOTION":13.16595981,"ECCENTRICITY":0.00016977,"INCLINATION":87.9043,"RA_OF_ASC_NODE":261.826,"ARG_OF_PERICENTER":77.2921,"MEAN_ANOMALY":282.8399,"EPHEMERIS_TYPE":0,"CLASSIFICATION_TYPE":"U","NORAD_CAT_ID":48970,"ELEMENT_SET_NO":999,"REV_AT_EPOCH":21781,"BSTAR":0.00032027601,"MEAN_MOTION_DOT":1.35e-6,"MEAN_MOTION_DDOT":0},{"OBJECT_NAME":"ONEWEB-0253","OBJECT_ID":"2021-060E","EPOCH":"2026-01-02T04:06:42.461856","MEAN_MOTION":13.16593807,"ECCENTRICITY":0.00014998,"INCLINATION":87.9044,"RA_OF_ASC_NODE":261.8326,"ARG_OF_PERICENTER":68.6591,"MEAN_ANOMALY":291.47,"EPHEMERIS_TYPE":0,"CLASSIFICATION_TYPE":"U","NORAD_CAT_ID":48971,"ELEMENT_SET_NO":999,"REV_AT_EPOCH":21774,"BSTAR":0.00027782969,"MEAN_MOTION_DOT":1.19e-6,"MEAN_MOTION_DDOT":0},{"OBJECT_NAME":"ONEWEB-0254","OBJECT_ID":"2021-060F","EPOCH":"2026-01-02T04:20:22.806528","MEAN_MOTION":13.16595546,"ECCENTRICITY":0.00012887,"INCLINATION":87.9048,"RA_OF_ASC_NODE":261.8232,"ARG_OF_PERICENTER":61.2502,"MEAN_ANOMALY":298.8758,"EPHEMERIS_TYPE":0,"CLASSIFICATION_TYPE":"U","NORAD_CAT_ID":48972,"ELEMENT_SET_NO":999,"REV_AT_EPOCH":21774,"BSTAR":0.00031625642,"MEAN_MOTION_DOT":1.34e-6,"MEAN_MOTION_DDOT":0},{"OBJECT_NAME":"ONEWEB-0255","OBJECT_ID":"2021-060G","EPOCH":"2026-01-02T05:15:06.245856","MEAN_MOTION":13.16593593,"ECCENTRICITY":0.00013859,"INCLINATION":87.9038,"RA_OF_ASC_NODE":261.8293,"ARG_OF_PERICENTER":66.051,"MEAN_ANOMALY":294.0766,"EPHEMERIS_TYPE":0,"CLASSIFICATION_TYPE":"U","NORAD_CAT_ID":48973,"ELEMENT_SET_NO":999,"REV_AT_EPOCH":21782,"BSTAR":0.00017245945,"MEAN_MOTION_DOT":7.9e-7,"MEAN_MOTION_DDOT":0},{"OBJECT_NAME":"ONEWEB-0256","OBJECT_ID":"2021-060H","EPOCH":"2026-01-02T04:03:15.632352","MEAN_MOTION":13.16597292,"ECCENTRICITY":0.00015773,"INCLINATION":87.9036,"RA_OF_ASC_NODE":261.8466,"ARG_OF_PERICENTER":78.2442,"MEAN_ANOMALY":281.8865,"EPHEMERIS_TYPE":0,"CLASSIFICATION_TYPE":"U","NORAD_CAT_ID":48974,"ELEMENT_SET_NO":999,"REV_AT_EPOCH":21778,"BSTAR":0.00036479275,"MEAN_MOTION_DOT":1.52e-6,"MEAN_MOTION_DDOT":0},{"OBJECT_NAME":"ONEWEB-0257","OBJECT_ID":"2021-060J","EPOCH":"2026-01-02T04:50:00.632544","MEAN_MOTION":13.16593621,"ECCENTRICITY":0.00014212,"INCLINATION":87.9034,"RA_OF_ASC_NODE":261.8225,"ARG_OF_PERICENTER":76.8404,"MEAN_ANOMALY":283.2886,"EPHEMERIS_TYPE":0,"CLASSIFICATION_TYPE":"U","NORAD_CAT_ID":48975,"ELEMENT_SET_NO":999,"REV_AT_EPOCH":21774,"BSTAR":0.00014800524,"MEAN_MOTION_DOT":6.9e-7,"MEAN_MOTION_DDOT":0},{"OBJECT_NAME":"ONEWEB-0258","OBJECT_ID":"2021-060K","EPOCH":"2026-01-02T04:52:17.626656","MEAN_MOTION":13.16593762,"ECCENTRICITY":0.00014058,"INCLINATION":87.9037,"RA_OF_ASC_NODE":261.8345,"ARG_OF_PERICENTER":75.7147,"MEAN_ANOMALY":284.414,"EPHEMERIS_TYPE":0,"CLASSIFICATION_TYPE":"U","NORAD_CAT_ID":48976,"ELEMENT_SET_NO":999,"REV_AT_EPOCH":21775,"BSTAR":0.00010842337,"MEAN_MOTION_DOT":5.4e-7,"MEAN_MOTION_DDOT":0},{"OBJECT_NAME":"ONEWEB-0259","OBJECT_ID":"2021-060L","EPOCH":"2026-01-02T04:43:10.353504","MEAN_MOTION":13.1659367,"ECCENTRICITY":0.00014051,"INCLINATION":87.9046,"RA_OF_ASC_NODE":261.8316,"ARG_OF_PERICENTER":70.3802,"MEAN_ANOMALY":289.748,"EPHEMERIS_TYPE":0,"CLASSIFICATION_TYPE":"U","NORAD_CAT_ID":48977,"ELEMENT_SET_NO":999,"REV_AT_EPOCH":21778,"BSTAR":8.0512963e-5,"MEAN_MOTION_DOT":4.4e-7,"MEAN_MOTION_DDOT":0},{"OBJECT_NAME":"ONEWEB-0260","OBJECT_ID":"2021-060M","EPOCH":"2026-01-02T04:30:37.647936","MEAN_MOTION":13.16596978,"ECCENTRICITY":0.00018931,"INCLINATION":87.9033,"RA_OF_ASC_NODE":261.8447,"ARG_OF_PERICENTER":77.1604,"MEAN_ANOMALY":282.9739,"EPHEMERIS_TYPE":0,"CLASSIFICATION_TYPE":"U","NORAD_CAT_ID":48978,"ELEMENT_SET_NO":999,"REV_AT_EPOCH":21776,"BSTAR":0.00023744752,"MEAN_MOTION_DOT":1.04e-6,"MEAN_MOTION_DDOT":0},{"OBJECT_NAME":"ONEWEB-0261","OBJECT_ID":"2021-060N","EPOCH":"2026-01-02T03:47:19.084128","MEAN_MOTION":13.16595441,"ECCENTRICITY":0.00015729,"INCLINATION":87.9034,"RA_OF_ASC_NODE":261.8522,"ARG_OF_PERICENTER":59.666,"MEAN_ANOMALY":300.4626,"EPHEMERIS_TYPE":0,"CLASSIFICATION_TYPE":"U","NORAD_CAT_ID":48979,"ELEMENT_SET_NO":999,"REV_AT_EPOCH":21781,"BSTAR":0.00016507706,"MEAN_MOTION_DOT":7.6e-7,"MEAN_MOTION_DDOT":0},{"OBJECT_NAME":"ONEWEB-0262","OBJECT_ID":"2021-060P","EPOCH":"2026-01-02T05:08:15.034560","MEAN_MOTION":13.16593262,"ECCENTRICITY":0.00012155,"INCLINATION":87.9044,"RA_OF_ASC_NODE":261.817,"ARG_OF_PERICENTER":69.2669,"MEAN_ANOMALY":290.8592,"EPHEMERIS_TYPE":0,"CLASSIFICATION_TYPE":"U","NORAD_CAT_ID":48980,"ELEMENT_SET_NO":999,"REV_AT_EPOCH":21778,"BSTAR":8.2644045e-5,"MEAN_MOTION_DOT":4.4e-7,"MEAN_MOTION_DDOT":0},{"OBJECT_NAME":"ONEWEB-0263","OBJECT_ID":"2021-060Q","EPOCH":"2026-01-02T04:04:25.040064","MEAN_MOTION":13.16593577,"ECCENTRICITY":0.00015171,"INCLINATION":87.9038,"RA_OF_ASC_NODE":261.8392,"ARG_OF_PERICENTER":58.7836,"MEAN_ANOMALY":301.3443,"EPHEMERIS_TYPE":0,"CLASSIFICATION_TYPE":"U","NORAD_CAT_ID":48981,"ELEMENT_SET_NO":999,"REV_AT_EPOCH":21774,"BSTAR":0.00050582409,"MEAN_MOTION_DOT":2.06e-6,"MEAN_MOTION_DDOT":0}]
