ONEWEB-0215             
1 48800U 21045AK  26002.29955098 -.00000027  00000+0 -10574-3 0  9999
2 48800  87.9019 292.2738 0001611  50.1937 309.9335 13.15547338222483
ONEWEB-0216             
1 48801U 21045AL  26002.30906460  .00000059  00000+0  12191-3 0  9991
2 48801  87.9007 292.2993 0001856  72.2924 287.8409 13.15548741222492
ONEWEB-0239             
1 48802U 21045AM  26002.31381976  .00000121  00000+0  28653-3 0  9992
2 48802  87.9004 292.3129 0001251  47.5205 312.6031 13.15548517222532
ONEWEB-0249             
1 48967U 21060A   26002.15073578  .00000069  00000+0  14706-3 0  9994
2 48967  87.9040 261.8385 0001444  69.6711 290.4575 13.16592939217763
ONEWEB-0250             
1 48968U 21060B   26002.20232848  .00000126  00000+0  25765-3 0  9999
2 48968  87.9038 260.1267 0000513  92.5503 267.5692 13.25822387218222
ONEWEB-0252             
1 48970U 21060D   26002.18239468  .00000135  00000+0  32028-3 0  9994
2 48970  87.9043 261.8260 0001697  77.2921 282.8399 13.16595981217815
ONEWEB-0253             
1 48971U 21060E   26002.17132479  .00000119  00000+0  27783-3 0  9992
2 48971  87.9044 261.8326 0001499  68.6591 291.4700 13.16593807217746
ONEWEB-0254             
1 48972U 21060F   26002.18081952  .00000134  00000+0  31626-3 0  9991
2 48972  87.9048 261.8232 0001288  61.2502 298.8758 13.16595546217740
ONEWEB-0255             
1 48973U 21060G   26002.21882229  .00000079  00000+0  17246-3 0  9992
2 48973  87.9038 261.8293 0001385  66.0510 294.0766 13.16593593217823
ONEWEB-0256             
1 48974U 21060H   26002.16893093  .00000152  00000+0  36479-3 0  9999
2 48974  87.9036 261.8466 0001577  78.2442 281.8865 13.16597292217785
ONEWEB-0257             
1 48975U 21060J   26002.20139621  .00000069  00000+0  14801-3 0  9997
2 48975  87.9034 261.8225 0001421  76.8404 283.2886 13.16593621217744
ONEWEB-0258             
1 48976U 21060K   26002.20298179  .00000054  00000+0  10842-3 0  9997
2 48976  87.9037 261.8345 0001405  75.7147 284.4140 13.16593762217758
ONEWEB-0259             
1 48977U 21060L   26002.19664761  .00000044  00000+0  80513-4 0  9992
2 48977  87.9046 261.8316 0001405  70.3802 289.7480 13.16593670217782
ONEWEB-0260             
1 48978U 21060M   26002.18793574  .00000104  00000+0  23745-3 0  9997
2 48978  87.9033 261.8447 0001893  77.1604 282.9739 13.16596978217764
ONEWEB-0261             
1 48979U 21060N   26002.15785977  .00000076  00000+0  16508-3 0  9990
2 48979  87.9034 261.8522 0001572  59.6660 300.4626 13.16595441217812
ONEWEB-0262             
1 48980U 21060P   26002.21406290  .00000044  00000+0  82644-4 0  9997
2 48980  87.9044 261.8170 0001215  69.2669 290.8592 13.16593262217783
ONEWEB-0263             
1 48981U 21060Q   26002.16973426  .00000206  00000+0  50582-3 0  9997
2 48981  87.9038 261.8392 0001517  58.7836 301.3443 13.16593577217745
